[{"OBJECT_NAME":"STARLINK-3858","OBJECT_ID":"2022-051W","EPOCH":"2026-03-09T10:30:19.250784","MEAN_MOTION":15.088451,"ECCENTRICITY":0.00014257,"INCLINATION":53.2167,"RA_OF_ASC_NODE":129.9136,"ARG_OF_PERICENTER":85.6169,"MEAN_ANOMALY":274.4986,"EPHEMERIS_TYPE":0,"CLASSIFICATION_TYPE":"U","NORAD_CAT_ID":52553,"ELEMENT_SET_NO":999,"REV_AT_EPOCH":21141,"BSTAR":1.8734813e-5,"MEAN_MOTION_DOT":1.0e-7,"MEAN_MOTION_DDOT":0},{"OBJECT_NAME":"UPPER FREE FLYER","OBJECT_ID":"2018-099F","EPOCH":"2026-03-09T16:53:56.769792","MEAN_MOTION":15.10728091,"ECCENTRICITY":0.00115819,"INCLINATION":97.4495,"RA_OF_ASC_NODE":120.4613,"ARG_OF_PERICENTER":289.4209,"MEAN_ANOMALY":70.5769,"EPHEMERIS_TYPE":0,"CLASSIFICATION_TYPE":"U","NORAD_CAT_ID":43763,"ELEMENT_SET_NO":999,"REV_AT_EPOCH":39752,"BSTAR":0.00029221901,"MEAN_MOTION_DOT":4.788e-5,"MEAN_MOTION_DDOT":0}]
